[{"OBJECT_NAME":"ONEWEB-0659","OBJECT_ID":"2022-166AN","EPOCH":"2026-03-09T22:18:26.103456","MEAN_MOTION":13.21828026,"ECCENTRICITY":0.00016838,"INCLINATION":87.9163,"RA_OF_ASC_NODE":263.7832,"ARG_OF_PERICENTER":90.6179,"MEAN_ANOMALY":269.5148,"EPHEMERIS_TYPE":0,"CLASSIFICATION_TYPE":"U","NORAD_CAT_ID":54678,"ELEMENT_SET_NO":999,"REV_AT_EPOCH":15841,"BSTAR":0.00013127399,"MEAN_MOTION_DOT":6.7e-7,"MEAN_MOTION_DDOT":0},{"OBJECT_NAME":"CZ-4C DEB","OBJECT_ID":"2012-029C","EPOCH":"2026-03-07T23:04:25.867200","MEAN_MOTION":13.19856994,"ECCENTRICITY":0.01247484,"INCLINATION":100.0705,"RA_OF_ASC_NODE":124.4519,"ARG_OF_PERICENTER":175.4998,"MEAN_ANOMALY":184.727,"EPHEMERIS_TYPE":0,"CLASSIFICATION_TYPE":"U","NORAD_CAT_ID":38661,"ELEMENT_SET_NO":999,"REV_AT_EPOCH":66020,"BSTAR":0.00045652398,"MEAN_MOTION_DOT":1.49e-6,"MEAN_MOTION_DDOT":0}]
